{"type": "FeatureCollection", "features": [ {"type": "Feature", "properties": {"norad_id": 37216, "name": "COSMO-SKYMED 4", "group": "resource", "lat": 62.388225611313366, "lon": 167.5164837901079, "alt_km": 615.5046465099203, "timestamp": "2025-12-27T18:38:03.136091+00:00", "meta": {"OBJECT_NAME": "COSMO-SKYMED 4", "OBJECT_ID": "2010-060A", "EPOCH": "2025-12-27T11:52:04.763712", "MEAN_MOTION": 14.82156126, "ECCENTRICITY": 0.0001429, "INCLINATION": 97.881, "RA_OF_ASC_NODE": 182.5955, "ARG_OF_PERICENTER": 82.6601, "MEAN_ANOMALY": 277.4774, "EPHEMERIS_TYPE": 0, "CLASSIFICATION_TYPE": "U", "NORAD_CAT_ID": 37216, "ELEMENT_SET_NO": 999, "REV_AT_EPOCH": 81913, "BSTAR": 8.9456e-05, "MEAN_MOTION_DOT": 6.6e-06, "MEAN_MOTION_DDOT": 0}, "tle": {"line1": "1 37216U 10060A   25361.49449958  .00000660  00000+0  89456-4 0  9992", "line2": "2 37216  97.8810 182.5955 0001429  82.6601 277.4774 14.82156126819134"}}, "geometry": {"type": "Point", "coordinates": [167.5164837901079, 62.388225611313366]}}, {"type": "Feature", "properties": {"norad_id": 37387, "name": "RESOURCESAT-2", "group": "resource", "lat": -3.9522003805018984, "lon": 65.87149738185862, "alt_km": 819.2864566171056, "timestamp": "2025-12-27T18:38:03.136101+00:00", "meta": {"OBJECT_NAME": "RESOURCESAT-2", "OBJECT_ID": "2011-015A", "EPOCH": "2025-12-27T11:53:46.213728", "MEAN_MOTION": 14.21595569, "ECCENTRICITY": 0.0005704, "INCLINATION": 98.7858, "RA_OF_ASC_NODE": 64.9799, "ARG_OF_PERICENTER": 2.0375, "MEAN_ANOMALY": 358.0824, "EPHEMERIS_TYPE": 0, "CLASSIFICATION_TYPE": "U", "NORAD_CAT_ID": 37387, "ELEMENT_SET_NO": 999, "REV_AT_EPOCH": 76178, "BSTAR": 8.0459e-05, "MEAN_MOTION_DOT": 1.32e-06, "MEAN_MOTION_DDOT": 0}, "tle": {"line1": "1 37387U 11015A   25361.49567377  .00000132  00000+0  80459-4 0  9996", "line2": "2 37387  98.7858  64.9799 0005704   2.0375 358.0824 14.21595569761788"}}, "geometry": {"type": "Point", "coordinates": [65.87149738185862, -3.9522003805018984]}}, {"type": "Feature", "properties": {"norad_id": 37781, "name": "HAIYANG-2A", "group": "resource", "lat": -70.49096043384385, "lon": 154.80612143521583, "alt_km": 976.3850071595625, "timestamp": "2025-12-27T18:38:03.136112+00:00", "meta": {"OBJECT_NAME": "HAIYANG-2A", "OBJECT_ID": "2011-043A", "EPOCH": "2025-12-27T12:11:15.033696", "MEAN_MOTION": 13.78836139, "ECCENTRICITY": 0.0001568, "INCLINATION": 99.3384, "RA_OF_ASC_NODE": 2.2149, "ARG_OF_PERICENTER": 63.363, "MEAN_ANOMALY": 296.7682, "EPHEMERIS_TYPE": 0, "CLASSIFICATION_TYPE": "U", "NORAD_CAT_ID": 37781, "ELEMENT_SET_NO": 999, "REV_AT_EPOCH": 72302, "BSTAR": 3.4013e-06, "MEAN_MOTION_DOT": -4.1e-07, "MEAN_MOTION_DDOT": 0}, "tle": {"line1": "1 37781U 11043A   25361.50781289 -.00000041  00000+0  34013-5 0  9993", "line2": "2 37781  99.3384   2.2149 0001568  63.3630 296.7682 13.78836139723026"}}, "geometry": {"type": "Point", "coordinates": [154.80612143521583, -70.49096043384385]}}, {"type": "Feature", "properties": {"norad_id": 37791, "name": "RASAT", "group": "resource", "lat": 35.54034085741369, "lon": -83.37726946536223, "alt_km": 673.7331922715375, "timestamp": "2025-12-27T18:38:03.136123+00:00", "meta": {"OBJECT_NAME": "RASAT", "OBJECT_ID": "2011-044D", "EPOCH": "2025-12-27T13:20:03.374304", "MEAN_MOTION": 14.67930277, "ECCENTRICITY": 0.0021177, "INCLINATION": 98.0636, "RA_OF_ASC_NODE": 90.5928, "ARG_OF_PERICENTER": 20.0542, "MEAN_ANOMALY": 37.4135, "EPHEMERIS_TYPE": 0, "CLASSIFICATION_TYPE": "U", "NORAD_CAT_ID": 37791, "ELEMENT_SET_NO": 999, "REV_AT_EPOCH": 76800, "BSTAR": 0.00014779, "MEAN_MOTION_DOT": 7.99e-06, "MEAN_MOTION_DDOT": 0}, "tle": {"line1": "1 37791U 11044D   25361.55559461  .00000799  00000+0  14779-3 0  9999", "line2": "2 37791  98.0636  90.5928 0021177  20.0542  37.4135 14.67930277768005"}}, "geometry": {"type": "Point", "coordinates": [-83.37726946536223, 35.54034085741369]}}, {"type": "Feature", "properties": {"norad_id": 37841, "name": "SRMSAT", "group": "resource", "lat": -10.457384310220297, "lon": -13.590536863857645, "alt_km": 860.5998256449884, "timestamp": "2025-12-27T18:38:03.136133+00:00", "meta": {"OBJECT_NAME": "SRMSAT", "OBJECT_ID": "2011-058D", "EPOCH": "2025-12-27T08:44:04.528320", "MEAN_MOTION": 14.11516495, "ECCENTRICITY": 0.0011975, "INCLINATION": 19.9733, "RA_OF_ASC_NODE": 19.4452, "ARG_OF_PERICENTER": 113.2094, "MEAN_ANOMALY": 274.2222, "EPHEMERIS_TYPE": 0, "CLASSIFICATION_TYPE": "U", "NORAD_CAT_ID": 37841, "ELEMENT_SET_NO": 999, "REV_AT_EPOCH": 73351, "BSTAR": 0.00010535, "MEAN_MOTION_DOT": 4.59e-06, "MEAN_MOTION_DDOT": 0}, "tle": {"line1": "1 37841U 11058D   25361.36394130  .00000459  00000+0  10535-3 0  9998", "line2": "2 37841  19.9733  19.4452 0011975 113.2094 274.2222 14.11516495733512"}}, "geometry": {"type": "Point", "coordinates": [-13.590536863857645, -10.457384310220297]}}, {"type": "Feature", "properties": {"norad_id": 38012, "name": "PLEIADES 1A", "group": "resource", "lat": 26.070632766533087, "lon": -101.6528805887536, "alt_km": 696.7152302305567, "timestamp": "2025-12-27T18:38:03.136144+00:00", "meta": {"OBJECT_NAME": "PLEIADES 1A", "OBJECT_ID": "2011-076F", "EPOCH": "2025-12-27T11:55:14.613024", "MEAN_MOTION": 14.58576101, "ECCENTRICITY": 0.0001046, "INCLINATION": 98.1801, "RA_OF_ASC_NODE": 74.0362, "ARG_OF_PERICENTER": 76.4624, "MEAN_ANOMALY": 49.1164, "EPHEMERIS_TYPE": 0, "CLASSIFICATION_TYPE": "U", "NORAD_CAT_ID": 38012, "ELEMENT_SET_NO": 999, "REV_AT_EPOCH": 74696, "BSTAR": 0.00017669, "MEAN_MOTION_DOT": 7.76e-06, "MEAN_MOTION_DDOT": 0}, "tle": {"line1": "1 38012U 11076F   25361.49669691  .00000776  00000+0  17669-3 0  9997", "line2": "2 38012  98.1801  74.0362 0001046  76.4624  49.1164 14.58576101746960"}}, "geometry": {"type": "Point", "coordinates": [-101.6528805887536, 26.070632766533087]}}, {"type": "Feature", "properties": {"norad_id": 38038, "name": "ZIYUAN 1-02C (ZY 1-02C)", "group": "resource", "lat": 30.314093432446725, "lon": 62.536642326907746, "alt_km": 761.3992235916921, "timestamp": "2025-12-27T18:38:03.136154+00:00", "meta": {"OBJECT_NAME": "ZIYUAN 1-02C (ZY 1-02C)", "OBJECT_ID": "2011-079A", "EPOCH": "2025-12-27T12:23:31.628256", "MEAN_MOTION": 14.38029738, "ECCENTRICITY": 0.0007582, "INCLINATION": 98.4309, "RA_OF_ASC_NODE": 67.2562, "ARG_OF_PERICENTER": 99.8973, "MEAN_ANOMALY": 25.2933, "EPHEMERIS_TYPE": 0, "CLASSIFICATION_TYPE": "U", "NORAD_CAT_ID": 38038, "ELEMENT_SET_NO": 999, "REV_AT_EPOCH": 73453, "BSTAR": 0.00029664, "MEAN_MOTION_DOT": 8.55e-06, "MEAN_MOTION_DDOT": 0}, "tle": {"line1": "1 38038U 11079A   25361.51633829  .00000855  00000+0  29664-3 0  9991", "line2": "2 38038  98.4309  67.2562 0007582  99.8973  25.2933 14.38029738734533"}}, "geometry": {"type": "Point", "coordinates": [62.536642326907746, 30.314093432446725]}}, {"type": "Feature", "properties": {"norad_id": 38338, "name": "ARIRANG-3 (KOMPSAT-3)", "group": "resource", "lat": -41.149150728506434, "lon": 129.1209392288554, "alt_km": 692.6272172590388, "timestamp": "2025-12-27T18:38:03.136164+00:00", "meta": {"OBJECT_NAME": "ARIRANG-3 (KOMPSAT-3)", "OBJECT_ID": "2012-025B", "EPOCH": "2025-12-27T12:41:40.183584", "MEAN_MOTION": 14.61732352, "ECCENTRICITY": 0.0004632, "INCLINATION": 98.3343, "RA_OF_ASC_NODE": 316.2315, "ARG_OF_PERICENTER": 284.7561, "MEAN_ANOMALY": 75.3126, "EPHEMERIS_TYPE": 0, "CLASSIFICATION_TYPE": "U", "NORAD_CAT_ID": 38338, "ELEMENT_SET_NO": 999, "REV_AT_EPOCH": 72626, "BSTAR": 0.00015082, "MEAN_MOTION_DOT": 7.03e-06, "MEAN_MOTION_DDOT": 0}, "tle": {"line1": "1 38338U 12025B   25361.52893731  .00000703  00000+0  15082-3 0  9998", "line2": "2 38338  98.3343 316.2315 0004632 284.7561  75.3126 14.61732352726267"}}, "geometry": {"type": "Point", "coordinates": [129.1209392288554, -41.149150728506434]}}, {"type": "Feature", "properties": {"norad_id": 38709, "name": "EXACTVIEW-1 (ADS-1B)", "group": "resource", "lat": 29.867571706596483, "lon": 105.2813861603894, "alt_km": 806.1455354960017, "timestamp": "2025-12-27T18:38:03.136175+00:00", "meta": {"OBJECT_NAME": "EXACTVIEW-1 (ADS-1B)", "OBJECT_ID": "2012-039C", "EPOCH": "2025-12-27T06:41:45.184416", "MEAN_MOTION": 14.24913949, "ECCENTRICITY": 0.0010047, "INCLINATION": 98.964, "RA_OF_ASC_NODE": 109.9743, "ARG_OF_PERICENTER": 310.2244, "MEAN_ANOMALY": 49.8055, "EPHEMERIS_TYPE": 0, "CLASSIFICATION_TYPE": "U", "NORAD_CAT_ID": 38709, "ELEMENT_SET_NO": 999, "REV_AT_EPOCH": 69822, "BSTAR": 9.8874e-05, "MEAN_MOTION_DOT": 1.85e-06, "MEAN_MOTION_DDOT": 0}, "tle": {"line1": "1 38709U 12039C   25361.27899519  .00000185  00000+0  98874-4 0  9992", "line2": "2 38709  98.9640 109.9743 0010047 310.2244  49.8055 14.24913949698220"}}, "geometry": {"type": "Point", "coordinates": [105.2813861603894, 29.867571706596483]}}, {"type": "Feature", "properties": {"norad_id": 38755, "name": "SPOT 6", "group": "resource", "lat": 74.27565349183402, "lon": 35.664215020831136, "alt_km": 689.9031709289457, "timestamp": "2025-12-27T18:38:03.136185+00:00", "meta": {"OBJECT_NAME": "SPOT 6", "OBJECT_ID": "2012-047A", "EPOCH": "2025-12-27T11:41:56.283072", "MEAN_MOTION": 14.58545912, "ECCENTRICITY": 0.0001233, "INCLINATION": 98.1549, "RA_OF_ASC_NODE": 65.9984, "ARG_OF_PERICENTER": 77.5925, "MEAN_ANOMALY": 282.5412, "EPHEMERIS_TYPE": 0, "CLASSIFICATION_TYPE": "U", "NORAD_CAT_ID": 38755, "ELEMENT_SET_NO": 999, "REV_AT_EPOCH": 70802, "BSTAR": 0.00013747, "MEAN_MOTION_DOT": 5.94e-06, "MEAN_MOTION_DDOT": 0}, "tle": {"line1": "1 38755U 12047A   25361.48745698  .00000594  00000+0  13747-3 0  9992", "line2": "2 38755  98.1549  65.9984 0001233  77.5925 282.5412 14.58545912708026"}}, "geometry": {"type": "Point", "coordinates": [35.664215020831136, 74.27565349183402]}}]}